[{"OBJECT_NAME":"STARLINK-35871","OBJECT_ID":"2025-268K","EPOCH":"2026-03-09T02:36:21.306816","MEAN_MOTION":15.27576379,"ECCENTRICITY":0.00017407,"INCLINATION":43.0044,"RA_OF_ASC_NODE":350.1058,"ARG_OF_PERICENTER":286.9653,"MEAN_ANOMALY":73.1008,"EPHEMERIS_TYPE":0,"CLASSIFICATION_TYPE":"U","NORAD_CAT_ID":66566,"ELEMENT_SET_NO":999,"REV_AT_EPOCH":1787,"BSTAR":0.0015306626,"MEAN_MOTION_DOT":0.00042095,"MEAN_MOTION_DDOT":0},{"OBJECT_NAME":"POEM","OBJECT_ID":"2022-072E","EPOCH":"2026-03-08T08:06:01.299456","MEAN_MOTION":15.22764653,"ECCENTRICITY":0.00236837,"INCLINATION":9.9515,"RA_OF_ASC_NODE":116.6548,"ARG_OF_PERICENTER":142.2805,"MEAN_ANOMALY":217.9074,"EPHEMERIS_TYPE":0,"CLASSIFICATION_TYPE":"U","NORAD_CAT_ID":52939,"ELEMENT_SET_NO":999,"REV_AT_EPOCH":20410,"BSTAR":0.00045784559,"MEAN_MOTION_DOT":0.00012084,"MEAN_MOTION_DDOT":0}]
